{"type": "FeatureCollection", "features": [ {"type": "Feature", "properties": {"norad_id": 34635, "name": "COSMOS 2251 DEB", "group": "cosmos-2251-debris", "lat": 23.66472502388722, "lon": 73.22593893742349, "alt_km": 672.1592634033086, "timestamp": "2025-12-15T04:01:20.846837+00:00", "meta": {"OBJECT_NAME": "COSMOS 2251 DEB", "OBJECT_ID": "1993-036XG", "EPOCH": "2025-12-14T05:09:23.610240", "MEAN_MOTION": 14.68297693, "ECCENTRICITY": 0.00283732, "INCLINATION": 74.0459, "RA_OF_ASC_NODE": 67.8644, "ARG_OF_PERICENTER": 136.1475, "MEAN_ANOMALY": 254.9089, "EPHEMERIS_TYPE": 0, "CLASSIFICATION_TYPE": "U", "NORAD_CAT_ID": 34635, "ELEMENT_SET_NO": 999, "REV_AT_EPOCH": 73241, "BSTAR": 0.0012747835, "MEAN_MOTION_DOT": 7.377e-05, "MEAN_MOTION_DDOT": 0}, "tle": {"line1": "1 34635U 93036XG  25348.21485660  .00007377  00000+0  12748-2 0  9993", "line2": "2 34635  74.0459  67.8644 0028373 136.1475 254.9089 14.68297693732416"}}, "geometry": {"type": "Point", "coordinates": [73.22593893742349, 23.66472502388722]}}, {"type": "Feature", "properties": {"norad_id": 34637, "name": "COSMOS 2251 DEB", "group": "cosmos-2251-debris", "lat": 34.80214516780224, "lon": -94.94014407869346, "alt_km": 657.7371863326189, "timestamp": "2025-12-15T04:01:20.846847+00:00", "meta": {"OBJECT_NAME": "COSMOS 2251 DEB", "OBJECT_ID": "1993-036XJ", "EPOCH": "2025-12-14T07:56:11.062176", "MEAN_MOTION": 14.60118662, "ECCENTRICITY": 0.00496692, "INCLINATION": 74.0489, "RA_OF_ASC_NODE": 98.122, "ARG_OF_PERICENTER": 168.1949, "MEAN_ANOMALY": 258.117, "EPHEMERIS_TYPE": 0, "CLASSIFICATION_TYPE": "U", "NORAD_CAT_ID": 34637, "ELEMENT_SET_NO": 999, "REV_AT_EPOCH": 88550, "BSTAR": 0.0010800737, "MEAN_MOTION_DOT": 5.261e-05, "MEAN_MOTION_DDOT": 0}, "tle": {"line1": "1 34637U 93036XJ  25348.33068359  .00005261  00000+0  10801-2 0  9998", "line2": "2 34637  74.0489  98.1220 0049669 168.1949 258.1170 14.60118662885506"}}, "geometry": {"type": "Point", "coordinates": [-94.94014407869346, 34.80214516780224]}}, {"type": "Feature", "properties": {"norad_id": 34641, "name": "COSMOS 2251 DEB", "group": "cosmos-2251-debris", "lat": 59.755800575215645, "lon": 106.84308905194925, "alt_km": 708.9570562576409, "timestamp": "2025-12-15T04:01:20.846857+00:00", "meta": {"OBJECT_NAME": "COSMOS 2251 DEB", "OBJECT_ID": "1993-036XN", "EPOCH": "2025-12-14T06:22:51.973248", "MEAN_MOTION": 14.52021483, "ECCENTRICITY": 0.00183703, "INCLINATION": 73.8391, "RA_OF_ASC_NODE": 78.7369, "ARG_OF_PERICENTER": 353.4015, "MEAN_ANOMALY": 38.8584, "EPHEMERIS_TYPE": 0, "CLASSIFICATION_TYPE": "U", "NORAD_CAT_ID": 34641, "ELEMENT_SET_NO": 999, "REV_AT_EPOCH": 88278, "BSTAR": 0.0011414342, "MEAN_MOTION_DOT": 4.597e-05, "MEAN_MOTION_DDOT": 0}, "tle": {"line1": "1 34641U 93036XN  25348.26587932  .00004597  00000+0  11414-2 0  9990", "line2": "2 34641  73.8391  78.7369 0018370 353.4015  38.8584 14.52021483882780"}}, "geometry": {"type": "Point", "coordinates": [106.84308905194925, 59.755800575215645]}}, {"type": "Feature", "properties": {"norad_id": 34642, "name": "COSMOS 2251 DEB", "group": "cosmos-2251-debris", "lat": 40.6041927736743, "lon": -10.169519901077575, "alt_km": 948.0180391660069, "timestamp": "2025-12-15T04:01:20.846868+00:00", "meta": {"OBJECT_NAME": "COSMOS 2251 DEB", "OBJECT_ID": "1993-036XP", "EPOCH": "2025-12-14T05:34:37.556832", "MEAN_MOTION": 13.98979057, "ECCENTRICITY": 0.02070291, "INCLINATION": 74.0049, "RA_OF_ASC_NODE": 337.2158, "ARG_OF_PERICENTER": 156.7409, "MEAN_ANOMALY": 219.8941, "EPHEMERIS_TYPE": 0, "CLASSIFICATION_TYPE": "U", "NORAD_CAT_ID": 34642, "ELEMENT_SET_NO": 999, "REV_AT_EPOCH": 85314, "BSTAR": 0.0010585207, "MEAN_MOTION_DOT": 1.815e-05, "MEAN_MOTION_DDOT": 0}, "tle": {"line1": "1 34642U 93036XP  25348.23237913  .00001815  00000+0  10585-2 0  9997", "line2": "2 34642  74.0049 337.2158 0207029 156.7409 219.8941 13.98979057853149"}}, "geometry": {"type": "Point", "coordinates": [-10.169519901077575, 40.6041927736743]}}, {"type": "Feature", "properties": {"norad_id": 34671, "name": "COSMOS 2251 DEB", "group": "cosmos-2251-debris", "lat": -57.641895802212225, "lon": 102.73255928486779, "alt_km": 677.1870272659507, "timestamp": "2025-12-15T04:01:20.846878+00:00", "meta": {"OBJECT_NAME": "COSMOS 2251 DEB", "OBJECT_ID": "1993-036XR", "EPOCH": "2025-12-14T02:39:02.129184", "MEAN_MOTION": 14.66972241, "ECCENTRICITY": 0.0011354, "INCLINATION": 74.0266, "RA_OF_ASC_NODE": 131.6497, "ARG_OF_PERICENTER": 212.501, "MEAN_ANOMALY": 265.2378, "EPHEMERIS_TYPE": 0, "CLASSIFICATION_TYPE": "U", "NORAD_CAT_ID": 34671, "ELEMENT_SET_NO": 999, "REV_AT_EPOCH": 88317, "BSTAR": 0.0018782784, "MEAN_MOTION_DOT": 0.00010515, "MEAN_MOTION_DDOT": 0}, "tle": {"line1": "1 34671U 93036XR  25348.11044131  .00010515  00000+0  18783-2 0  9999", "line2": "2 34671  74.0266 131.6497 0011354 212.5010 265.2378 14.66972241883176"}}, "geometry": {"type": "Point", "coordinates": [102.73255928486779, -57.641895802212225]}}, {"type": "Feature", "properties": {"norad_id": 34672, "name": "COSMOS 2251 DEB", "group": "cosmos-2251-debris", "lat": -29.699951326681063, "lon": 130.5292273955547, "alt_km": 791.9494960573275, "timestamp": "2025-12-15T04:01:20.846889+00:00", "meta": {"OBJECT_NAME": "COSMOS 2251 DEB", "OBJECT_ID": "1993-036XS", "EPOCH": "2025-12-11T16:16:44.249952", "MEAN_MOTION": 14.36406242, "ECCENTRICITY": 0.00236356, "INCLINATION": 74.0334, "RA_OF_ASC_NODE": 307.539, "ARG_OF_PERICENTER": 19.6523, "MEAN_ANOMALY": 155.1005, "EPHEMERIS_TYPE": 0, "CLASSIFICATION_TYPE": "U", "NORAD_CAT_ID": 34672, "ELEMENT_SET_NO": 999, "REV_AT_EPOCH": 65162, "BSTAR": 0.00043649208, "MEAN_MOTION_DOT": 1.257e-05, "MEAN_MOTION_DDOT": 0}, "tle": {"line1": "1 34672U 93036XS  25345.67828993  .00001257  00000+0  43649-3 0  9997", "line2": "2 34672  74.0334 307.5390 0023635  19.6523 155.1005 14.36406242651626"}}, "geometry": {"type": "Point", "coordinates": [130.5292273955547, -29.699951326681063]}}, {"type": "Feature", "properties": {"norad_id": 34678, "name": "COSMOS 2251 DEB", "group": "cosmos-2251-debris", "lat": -20.968599385072878, "lon": -5.0178995600588605, "alt_km": 790.7821175043746, "timestamp": "2025-12-15T04:01:20.846901+00:00", "meta": {"OBJECT_NAME": "COSMOS 2251 DEB", "OBJECT_ID": "1993-036XY", "EPOCH": "2025-12-14T08:03:06.939072", "MEAN_MOTION": 14.30065333, "ECCENTRICITY": 0.00244484, "INCLINATION": 74.0377, "RA_OF_ASC_NODE": 2.7916, "ARG_OF_PERICENTER": 51.4105, "MEAN_ANOMALY": 324.9515, "EPHEMERIS_TYPE": 0, "CLASSIFICATION_TYPE": "U", "NORAD_CAT_ID": 34678, "ELEMENT_SET_NO": 999, "REV_AT_EPOCH": 87402, "BSTAR": 4.5231771e-05, "MEAN_MOTION_DOT": 9.1e-07, "MEAN_MOTION_DDOT": 0}, "tle": {"line1": "1 34678U 93036XY  25348.33549698  .00000091  00000+0  45232-4 0  9997", "line2": "2 34678  74.0377   2.7916 0024448  51.4105 324.9515 14.30065333874029"}}, "geometry": {"type": "Point", "coordinates": [-5.0178995600588605, -20.968599385072878]}}, {"type": "Feature", "properties": {"norad_id": 34680, "name": "COSMOS 2251 DEB", "group": "cosmos-2251-debris", "lat": 11.911218175035115, "lon": -58.237748380903334, "alt_km": 689.2568432164089, "timestamp": "2025-12-15T04:01:20.846911+00:00", "meta": {"OBJECT_NAME": "COSMOS 2251 DEB", "OBJECT_ID": "1993-036YA", "EPOCH": "2025-12-13T12:08:06.125280", "MEAN_MOTION": 14.60640869, "ECCENTRICITY": 0.00066608, "INCLINATION": 74.0428, "RA_OF_ASC_NODE": 128.3944, "ARG_OF_PERICENTER": 225.9095, "MEAN_ANOMALY": 205.9692, "EPHEMERIS_TYPE": 0, "CLASSIFICATION_TYPE": "U", "NORAD_CAT_ID": 34680, "ELEMENT_SET_NO": 999, "REV_AT_EPOCH": 88339, "BSTAR": 0.0019126401, "MEAN_MOTION_DOT": 9.295e-05, "MEAN_MOTION_DDOT": 0}, "tle": {"line1": "1 34680U 93036YA  25347.50562645  .00009295  00000+0  19126-2 0  9991", "line2": "2 34680  74.0428 128.3944 0006660 225.9095 205.9692 14.60640869883397"}}, "geometry": {"type": "Point", "coordinates": [-58.237748380903334, 11.911218175035115]}}, {"type": "Feature", "properties": {"norad_id": 34681, "name": "COSMOS 2251 DEB", "group": "cosmos-2251-debris", "lat": -50.3977345339391, "lon": 125.80380519948163, "alt_km": 631.1934570566873, "timestamp": "2025-12-15T04:01:20.846921+00:00", "meta": {"OBJECT_NAME": "COSMOS 2251 DEB", "OBJECT_ID": "1993-036YB", "EPOCH": "2025-12-14T06:36:15.292800", "MEAN_MOTION": 14.8326929, "ECCENTRICITY": 0.00255959, "INCLINATION": 74.0624, "RA_OF_ASC_NODE": 287.3611, "ARG_OF_PERICENTER": 343.8179, "MEAN_ANOMALY": 166.2591, "EPHEMERIS_TYPE": 0, "CLASSIFICATION_TYPE": "U", "NORAD_CAT_ID": 34681, "ELEMENT_SET_NO": 999, "REV_AT_EPOCH": 89293, "BSTAR": 0.0017434117, "MEAN_MOTION_DOT": 0.0001434, "MEAN_MOTION_DDOT": 0}, "tle": {"line1": "1 34681U 93036YB  25348.27517700  .00014340  00000+0  17434-2 0  9996", "line2": "2 34681  74.0624 287.3611 0025595 343.8179 166.2591 14.83269290892931"}}, "geometry": {"type": "Point", "coordinates": [125.80380519948163, -50.3977345339391]}}, {"type": "Feature", "properties": {"norad_id": 34682, "name": "COSMOS 2251 DEB", "group": "cosmos-2251-debris", "lat": 43.08171240035948, "lon": -117.15897899552644, "alt_km": 689.6631926412147, "timestamp": "2025-12-15T04:01:20.846931+00:00", "meta": {"OBJECT_NAME": "COSMOS 2251 DEB", "OBJECT_ID": "1993-036YC", "EPOCH": "2025-12-14T07:58:27.200928", "MEAN_MOTION": 14.5891274, "ECCENTRICITY": 0.00182533, "INCLINATION": 74.0398, "RA_OF_ASC_NODE": 79.9547, "ARG_OF_PERICENTER": 212.7527, "MEAN_ANOMALY": 216.6, "EPHEMERIS_TYPE": 0, "CLASSIFICATION_TYPE": "U", "NORAD_CAT_ID": 34682, "ELEMENT_SET_NO": 999, "REV_AT_EPOCH": 88709, "BSTAR": 0.00090008229, "MEAN_MOTION_DOT": 4.201e-05, "MEAN_MOTION_DDOT": 0}, "tle": {"line1": "1 34682U 93036YC  25348.33225927  .00004201  00000+0  90008-3 0  9995", "line2": "2 34682  74.0398  79.9547 0018253 212.7527 216.6000 14.58912740887090"}}, "geometry": {"type": "Point", "coordinates": [-117.15897899552644, 43.08171240035948]}}]}